#dP2019  6 14  0  0  0.00000000      96 __u+U ITR00 FIT  IAC
## 2057 432000.00000000   900.00000000 58648 0.0000000000000
+   93   C01C02C03C05C06C07C08C09C10C11C12C13C14C16E01E02E03
+        E04E05E07E08E09E11E12E13E14E15E18E19E21E24E25E26E27
+        E30E31E33E36G01G02G03G04G05G06G07G08G09G10G11G12G13
+        G14G15G16G17G18G19G20G21G22G23G24G25G26G27G28G29G30
+        G31G32R01R02R03R04R05R07R08R09R10R11R13R14R15R16R17
+        R18R19R20R21R22R23R24R26  0  0  0  0  0  0  0  0  0
++         0 12 13 12  9  8  9  8  8  8  8  8  8  9  5  6  5
++         5  5  6  6  5  5  5  5  5  5  5  5  5  5  5  6  5
++         5  5  5  5  4  4  4  4  3  3  4  4  3  3  4  4  4
++         4  4  4  4  4  4  3  3  4  4  4  3  4  4  4  3  4
++         4  4  6  6  6  6  6  5  5  5  5  6  6  5  5  6  6
++         5  6  6  5  5  5  6  8  0  0  0  0  0  0  0  0  0
%c M  cc GPS ccc cccc cccc cccc cccc ccccc ccccc ccccc ccccc
%c cc cc ccc ccc cccc cccc cccc cccc ccccc ccccc ccccc ccccc
%f  0.0000000  0.000000000  0.00000000000  0.000000000000000
%f  0.0000000  0.000000000  0.00000000000  0.000000000000000
%i    0    0    0    0      0      0      0      0         0
%i    0    0    0    0      0      0      0      0         0
/*                                                          
/*   RSA / INFORMATION & ANALYSIS CENTER (IAC) OF MCC       
/*   ULTRA-RAPID DETERMINATION                              
/* PCV:IGS14_2056 OL/AL:FES2004  NONE     YN ORB:CoN CLK:CoN
*  2019 06 14  4 15  0.00000000
PC01 -32314.963038  27046.475903    989.746993    710.476597
PC02   4334.042164  41935.037803   -740.305444     97.931590
PC03 -14800.602197  39444.583756    396.392297    531.916402
PC05  21892.316001  35986.826470   -644.933290   -252.304325
PC06  -9529.490717  23550.314333 -33263.109141    901.021424
PC07 -24251.968832  27632.145258  20353.572569    144.510932
PC08 -13440.673033  38504.006839  11349.942102    165.024511
PC09   6618.054579  31936.531096 -26287.907282    840.460759
PC10  -7356.988969  28673.356025  30031.315923   -842.493942
PC11 -17670.979524  -4463.738155  21163.451078    278.258581
PC12 -11760.600949 -25230.828730  -1142.601277    763.017821
PC13  -4578.823185  41956.248483  -2693.233705   -776.013075
PC14 -25729.949855  -7112.387381   8271.803950    566.431346
PC16  -5704.228450  25412.439698 -33083.285954   -919.561381
PE01  14497.387330 -21289.865474 -14594.000311   -625.763989
PE02 -14449.248268  21289.568423  14633.375922     64.750755
PE03  -4607.017778  16740.281724 -23965.139840   -177.113359
PE04 -15845.924405 -19865.162489  15191.743086   -302.411147
PE05 -22564.253359   3766.607915 -18772.340188   -475.242391
PE07  27229.430051  11320.162406   2654.762954   -206.861258
PE08  16166.578874  19631.517643 -15147.687242   6340.147631
PE09 -27294.165772 -11114.163073  -2659.592217   6409.431186
PE11 -15835.589040 -10888.548466  22512.598213   5677.258448
PE12  -7699.270504 -27325.887567   8418.939870   6347.559613
PE13  15793.782023  10944.317183 -22510.524767    388.520033
PE14  -7815.457461 -25941.416888 -13383.496694   -604.598864
PE15   8007.797729  27111.033430  -8760.887850    906.917656
PE18  18236.519371  20234.992514  -1331.962767   -701.126995
PE19   6631.748846 -15701.483442  24212.002453     -5.769622
PE21  25698.552330 -14152.081550   3967.808714   -538.952619
PE24 -21904.938858  -1262.527829 -19886.750778   6029.588188
PE25 -25704.458536  14103.981108  -4033.642555   1773.817288
PE26  14587.465842 -11615.887715 -22987.576342   4455.746172
PE27  21702.211888   1365.961384  20085.624238    449.662967
PE30   5155.241093  15973.094243  24370.809880   4791.874387
PE31  -4970.112750 -16044.755247 -24369.667771   -465.591526
PE33   4482.316959 -27447.785253 -10146.431282   -469.938236
PE36 -14349.515868  11670.717487  23109.777995    699.990500
PG01 -13674.582266  19291.593388  11571.099304    -40.630543
PG02  14899.873148   2232.295160 -21267.109975   -236.857365
PG03 -20570.337744  12915.492983 -10684.877609    185.607402
PG04   7892.356436  21879.997373 -12812.749006    167.436634
PG05  25374.051785  -1066.034277  -8253.250641      0.544175
PG06   8555.399607  16660.951834 -18775.283885    178.485016
PG07  -6120.816779  25519.098310   1947.479221    -44.067716
PG08 -17153.143809   2464.429922  20217.369779   -147.358748
PG09   1932.894488  19719.755374 -17720.728027    392.015609
PG10  -9031.523210 -13041.972632  21393.513633     16.722436
PG11 -10903.695207  16371.730287  17427.871808   -584.968677
PG12  22424.626340 -10584.930645  -9492.266808    233.341331
PG13  19690.872363   7669.195364  16012.524792    -59.159199
PG14 -18534.458294 -18857.202727  -3091.132667    -76.168098
PG15  16961.424179  -4955.364575  19667.560946   -307.179375
PG16 -25620.273750  -1111.830542  -7917.819858    -47.922338
PG17  14392.872559  21824.248890   5354.939347     71.383983
PG18 -15459.742488  11639.612659  17641.487876     61.751956
PG19  17939.143635  19359.485410  -2919.167006   -306.844671
PG20    968.232062 -16737.110607  20468.461944    525.369013
PG21    373.814422 -25862.365537   7180.368190   -173.603686
PG22 -24200.666675  10382.118507  -2875.506339   -716.682185
PG23 -10465.482801  11353.280328 -21262.698340   -181.869854
PG24  14402.765569 -16957.913363  14101.185231    -67.431346
PG25  11193.967635 -15767.153577 -18307.872802   -765.501437
PG26 -19991.978390  -6466.041097 -16370.854064    226.436583
PG27 -21334.616223  -9262.318084  12988.822292   -157.368631
PG28   7268.961260  13784.014618  22102.372117    767.459982
PG29   2744.622594 -17229.621105 -20060.294969    176.954633
PG30   1150.158240  23764.074044  11630.748395   -123.501310
PG31  -9618.937888 -15040.803100 -19519.509903     31.245538
PG32 -16470.566511 -20556.883082   3935.048904    -44.517084
PR01  11433.413792  -7995.871825  21366.083960     45.295520
PR02 -10578.807287 -12282.799076  19757.536808    373.416198
PR03 -23393.762523  -8533.949746   5677.920899     -3.310258
PR04 -22402.715241    504.713533 -12178.921604    310.036989
PR05  -9048.824138   8559.296037 -22246.642914     30.005035
PR07  23566.372822   8282.158890  -5033.893862    -21.734909
PR08  22720.299213   -125.459706  11645.795709     17.262238
PR09    418.217162  14345.675984  21082.298122     74.936289
PR10  12202.670935   2308.344622  22273.679957     52.102256
PR11  19390.311775 -12745.565618  10665.292500    -69.374199
PR13   1349.111555 -15418.619463 -20296.444824    -24.864483
PR14 -12429.078699  -2314.140766 -22140.973803     39.925461
PR15 -19260.275559  12173.142185 -11446.975739    102.520899
PR16 -14675.344933  20053.174873   5989.901280      8.572607
PR17 -12082.372471 -15917.576287  15836.685487    235.583924
PR18 -10588.995652   1148.641521  23189.584162     -3.339321
PR19  -3788.883473  17591.378183  18074.415722    -36.181306
PR20   6016.436411  24747.675025    846.513722   -381.181099
PR21  12097.921491  15427.271178 -16336.353426    -53.856161
PR22   9671.822306  -4238.420285 -23224.159617    -23.837915
PR23    667.030807 -21232.519090 -14136.721292    234.262487
PR24  -7278.851371 -24437.991540    963.836773   -181.518657
PR26   5206.928237  24706.761117   3716.895305     -7.024004
EOF
